{"type": "FeatureCollection", "features": [ {"type": "Feature", "properties": {"norad_id": 37477, "name": "FENGYUN 1C DEB", "group": "fengyun-1c-debris", "lat": 61.80017730399286, "lon": -160.1110313817362, "alt_km": 801.624532382687, "timestamp": "2025-12-25T03:55:56.647456+00:00", "meta": {"OBJECT_NAME": "FENGYUN 1C DEB", "OBJECT_ID": "1999-025EJX", "EPOCH": "2025-12-16T18:06:36.022176", "MEAN_MOTION": 14.19731482, "ECCENTRICITY": 0.00371355, "INCLINATION": 98.6057, "RA_OF_ASC_NODE": 355.3103, "ARG_OF_PERICENTER": 94.8392, "MEAN_ANOMALY": 265.7026, "EPHEMERIS_TYPE": 0, "CLASSIFICATION_TYPE": "U", "NORAD_CAT_ID": 37477, "ELEMENT_SET_NO": 999, "REV_AT_EPOCH": 81971, "BSTAR": 0.00055952668, "MEAN_MOTION_DOT": 1.15e-05, "MEAN_MOTION_DDOT": 0}, "tle": {"line1": "1 37477U 99025EJX 25350.75458359  .00001150  00000+0  55953-3 0  9990", "line2": "2 37477  98.6057 355.3103 0037135  94.8392 265.7026 14.19731482819713"}}, "geometry": {"type": "Point", "coordinates": [-160.1110313817362, 61.80017730399286]}}, {"type": "Feature", "properties": {"norad_id": 37478, "name": "FENGYUN 1C DEB", "group": "fengyun-1c-debris", "lat": 63.504542720495685, "lon": -39.616636350119116, "alt_km": 1525.2781728481332, "timestamp": "2025-12-25T03:55:56.647466+00:00", "meta": {"OBJECT_NAME": "FENGYUN 1C DEB", "OBJECT_ID": "1999-025EJY", "EPOCH": "2025-12-23T05:31:28.594848", "MEAN_MOTION": 13.03020761, "ECCENTRICITY": 0.05479168, "INCLINATION": 99.6522, "RA_OF_ASC_NODE": 338.6097, "ARG_OF_PERICENTER": 295.1195, "MEAN_ANOMALY": 59.4029, "EPHEMERIS_TYPE": 0, "CLASSIFICATION_TYPE": "U", "NORAD_CAT_ID": 37478, "ELEMENT_SET_NO": 999, "REV_AT_EPOCH": 56698, "BSTAR": 0.0032489988, "MEAN_MOTION_DOT": 2.046e-05, "MEAN_MOTION_DDOT": 0}, "tle": {"line1": "1 37478U 99025EJY 25357.23019207  .00002046  00000+0  32490-2 0  9991", "line2": "2 37478  99.6522 338.6097 0547916 295.1195  59.4029 13.03020761566980"}}, "geometry": {"type": "Point", "coordinates": [-39.616636350119116, 63.504542720495685]}}, {"type": "Feature", "properties": {"norad_id": 37589, "name": "FENGYUN 1C DEB", "group": "fengyun-1c-debris", "lat": 10.74139149460362, "lon": -99.89994243346848, "alt_km": 932.7867543674765, "timestamp": "2025-12-25T03:55:56.647477+00:00", "meta": {"OBJECT_NAME": "FENGYUN 1C DEB", "OBJECT_ID": "1999-025EKH", "EPOCH": "2025-12-22T12:47:20.483808", "MEAN_MOTION": 14.08264276, "ECCENTRICITY": 0.01172304, "INCLINATION": 99.0749, "RA_OF_ASC_NODE": 259.1917, "ARG_OF_PERICENTER": 236.7185, "MEAN_ANOMALY": 122.271, "EPHEMERIS_TYPE": 0, "CLASSIFICATION_TYPE": "U", "NORAD_CAT_ID": 37589, "ELEMENT_SET_NO": 999, "REV_AT_EPOCH": 82722, "BSTAR": 0.0028934456, "MEAN_MOTION_DOT": 5.223e-05, "MEAN_MOTION_DDOT": 0}, "tle": {"line1": "1 37589U 99025EKH 25356.53287597  .00005223  00000+0  28934-2 0  9993", "line2": "2 37589  99.0749 259.1917 0117230 236.7185 122.2710 14.08264276827228"}}, "geometry": {"type": "Point", "coordinates": [-99.89994243346848, 10.74139149460362]}}, {"type": "Feature", "properties": {"norad_id": 37594, "name": "FENGYUN 1C DEB", "group": "fengyun-1c-debris", "lat": -21.893739655459225, "lon": 31.70171111883539, "alt_km": 874.8854750646742, "timestamp": "2025-12-25T03:55:56.647487+00:00", "meta": {"OBJECT_NAME": "FENGYUN 1C DEB", "OBJECT_ID": "1999-025EKN", "EPOCH": "2025-12-23T12:53:53.738592", "MEAN_MOTION": 14.11128547, "ECCENTRICITY": 0.00852864, "INCLINATION": 98.7335, "RA_OF_ASC_NODE": 26.5783, "ARG_OF_PERICENTER": 238.8668, "MEAN_ANOMALY": 120.4117, "EPHEMERIS_TYPE": 0, "CLASSIFICATION_TYPE": "U", "NORAD_CAT_ID": 37594, "ELEMENT_SET_NO": 999, "REV_AT_EPOCH": 77914, "BSTAR": 0.00023559331, "MEAN_MOTION_DOT": 3.96e-06, "MEAN_MOTION_DDOT": 0}, "tle": {"line1": "1 37594U 99025EKN 25357.53742753  .00000396  00000+0  23559-3 0  9995", "line2": "2 37594  98.7335  26.5783 0085286 238.8668 120.4117 14.11128547779144"}}, "geometry": {"type": "Point", "coordinates": [31.70171111883539, -21.893739655459225]}}, {"type": "Feature", "properties": {"norad_id": 37595, "name": "FENGYUN 1C DEB", "group": "fengyun-1c-debris", "lat": 80.2792425379703, "lon": 98.26376530131772, "alt_km": 659.9796410834797, "timestamp": "2025-12-25T03:55:56.647497+00:00", "meta": {"OBJECT_NAME": "FENGYUN 1C DEB", "OBJECT_ID": "1999-025EKP", "EPOCH": "2025-12-23T19:12:19.083168", "MEAN_MOTION": 14.71564982, "ECCENTRICITY": 0.00285537, "INCLINATION": 99.0458, "RA_OF_ASC_NODE": 208.3187, "ARG_OF_PERICENTER": 332.5627, "MEAN_ANOMALY": 100.7823, "EPHEMERIS_TYPE": 0, "CLASSIFICATION_TYPE": "U", "NORAD_CAT_ID": 37595, "ELEMENT_SET_NO": 999, "REV_AT_EPOCH": 62768, "BSTAR": 0.0037494781, "MEAN_MOTION_DOT": 0.00023466, "MEAN_MOTION_DDOT": 0}, "tle": {"line1": "1 37595U 99025EKP 25357.80022087  .00023466  00000+0  37495-2 0  9993", "line2": "2 37595  99.0458 208.3187 0028553 332.5627 100.7823 14.71564982627683"}}, "geometry": {"type": "Point", "coordinates": [98.26376530131772, 80.2792425379703]}}, {"type": "Feature", "properties": {"norad_id": 37600, "name": "FENGYUN 1C DEB", "group": "fengyun-1c-debris", "lat": -38.40950287666022, "lon": 162.42039066959353, "alt_km": 803.4380977904775, "timestamp": "2025-12-25T03:55:56.647507+00:00", "meta": {"OBJECT_NAME": "FENGYUN 1C DEB", "OBJECT_ID": "1999-025EKU", "EPOCH": "2025-12-24T03:47:47.081184", "MEAN_MOTION": 13.82645296, "ECCENTRICITY": 0.03566234, "INCLINATION": 98.933, "RA_OF_ASC_NODE": 154.3007, "ARG_OF_PERICENTER": 18.485, "MEAN_ANOMALY": 342.8887, "EPHEMERIS_TYPE": 0, "CLASSIFICATION_TYPE": "U", "NORAD_CAT_ID": 37600, "ELEMENT_SET_NO": 999, "REV_AT_EPOCH": 88645, "BSTAR": 0.0028552433, "MEAN_MOTION_DOT": 5.014e-05, "MEAN_MOTION_DDOT": 0}, "tle": {"line1": "1 37600U 99025EKU 25358.15818381  .00005014  00000+0  28552-2 0  9992", "line2": "2 37600  98.9330 154.3007 0356623  18.4850 342.8887 13.82645296886458"}}, "geometry": {"type": "Point", "coordinates": [162.42039066959353, -38.40950287666022]}}, {"type": "Feature", "properties": {"norad_id": 37683, "name": "FENGYUN 1C DEB", "group": "fengyun-1c-debris", "lat": -17.689828515516083, "lon": 93.72088840874487, "alt_km": 1229.0264433831653, "timestamp": "2025-12-25T03:55:56.647517+00:00", "meta": {"OBJECT_NAME": "FENGYUN 1C DEB", "OBJECT_ID": "1999-025EKY", "EPOCH": "2025-12-22T12:45:28.700352", "MEAN_MOTION": 13.31943553, "ECCENTRICITY": 0.05857029, "INCLINATION": 98.0031, "RA_OF_ASC_NODE": 274.2271, "ARG_OF_PERICENTER": 100.084, "MEAN_ANOMALY": 76.0427, "EPHEMERIS_TYPE": 0, "CLASSIFICATION_TYPE": "U", "NORAD_CAT_ID": 37683, "ELEMENT_SET_NO": 999, "REV_AT_EPOCH": 29370, "BSTAR": 0.0017018804, "MEAN_MOTION_DOT": 2.128e-05, "MEAN_MOTION_DDOT": 0}, "tle": {"line1": "1 37683U 99025EKY 25356.53158218  .00002128  00000+0  17019-2 0  9998", "line2": "2 37683  98.0031 274.2271 0585702 100.0840  76.0427 13.31943553293709"}}, "geometry": {"type": "Point", "coordinates": [93.72088840874487, -17.689828515516083]}}, {"type": "Feature", "properties": {"norad_id": 37686, "name": "FENGYUN 1C DEB", "group": "fengyun-1c-debris", "lat": 3.8529272911539305, "lon": 15.560716017734569, "alt_km": 833.9644912579361, "timestamp": "2025-12-25T03:55:56.647528+00:00", "meta": {"OBJECT_NAME": "FENGYUN 1C DEB", "OBJECT_ID": "1999-025ELB", "EPOCH": "2025-12-15T20:02:19.291200", "MEAN_MOTION": 13.35366399, "ECCENTRICITY": 0.03959537, "INCLINATION": 99.0216, "RA_OF_ASC_NODE": 7.9106, "ARG_OF_PERICENTER": 34.5937, "MEAN_ANOMALY": 145.9696, "EPHEMERIS_TYPE": 0, "CLASSIFICATION_TYPE": "U", "NORAD_CAT_ID": 37686, "ELEMENT_SET_NO": 999, "REV_AT_EPOCH": 60668, "BSTAR": 0.00056833835, "MEAN_MOTION_DOT": 4.14e-06, "MEAN_MOTION_DDOT": 0}, "tle": {"line1": "1 37686U 99025ELB 25349.83494550  .00000414  00000+0  56834-3 0  9993", "line2": "2 37686  99.0216   7.9106 0395953  34.5937 145.9696 13.35366399606681"}}, "geometry": {"type": "Point", "coordinates": [15.560716017734569, 3.8529272911539305]}}, {"type": "Feature", "properties": {"norad_id": 37687, "name": "FENGYUN 1C DEB", "group": "fengyun-1c-debris", "lat": 49.87047160837643, "lon": -137.36947086508408, "alt_km": 1175.6360125302117, "timestamp": "2025-12-25T03:55:56.647538+00:00", "meta": {"OBJECT_NAME": "FENGYUN 1C DEB", "OBJECT_ID": "1999-025ELC", "EPOCH": "2025-12-23T20:58:32.824128", "MEAN_MOTION": 13.85430386, "ECCENTRICITY": 0.0333706, "INCLINATION": 98.2054, "RA_OF_ASC_NODE": 31.6428, "ARG_OF_PERICENTER": 327.835, "MEAN_ANOMALY": 210.8077, "EPHEMERIS_TYPE": 0, "CLASSIFICATION_TYPE": "U", "NORAD_CAT_ID": 37687, "ELEMENT_SET_NO": 999, "REV_AT_EPOCH": 83408, "BSTAR": 0.0031414, "MEAN_MOTION_DOT": 5.496e-05, "MEAN_MOTION_DDOT": 0}, "tle": {"line1": "1 37687U 99025ELC 25357.87399102  .00005496  00000+0  31414-2 0  9995", "line2": "2 37687  98.2054  31.6428 0333706 327.8350 210.8077 13.85430386834084"}}, "geometry": {"type": "Point", "coordinates": [-137.36947086508408, 49.87047160837643]}}, {"type": "Feature", "properties": {"norad_id": 37689, "name": "FENGYUN 1C DEB", "group": "fengyun-1c-debris", "lat": 71.04057085936806, "lon": -112.01618696514339, "alt_km": 724.045457728077, "timestamp": "2025-12-25T03:55:56.647549+00:00", "meta": {"OBJECT_NAME": "FENGYUN 1C DEB", "OBJECT_ID": "1999-025ELE", "EPOCH": "2025-12-16T22:11:39.439392", "MEAN_MOTION": 14.48718217, "ECCENTRICITY": 0.00208957, "INCLINATION": 98.9198, "RA_OF_ASC_NODE": 32.0803, "ARG_OF_PERICENTER": 227.3129, "MEAN_ANOMALY": 132.6303, "EPHEMERIS_TYPE": 0, "CLASSIFICATION_TYPE": "U", "NORAD_CAT_ID": 37689, "ELEMENT_SET_NO": 999, "REV_AT_EPOCH": 57873, "BSTAR": 0.0018942734, "MEAN_MOTION_DOT": 7.118e-05, "MEAN_MOTION_DDOT": 0}, "tle": {"line1": "1 37689U 99025ELE 25350.92476203  .00007118  00000+0  18943-2 0  9999", "line2": "2 37689  98.9198  32.0803 0020895 227.3129 132.6303 14.48718217578736"}}, "geometry": {"type": "Point", "coordinates": [-112.01618696514339, 71.04057085936806]}}]}